[{"OBJECT_NAME":"STARLINK-2270","OBJECT_ID":"2021-024Z","EPOCH":"2026-03-10T00:00:02.999808","MEAN_MOTION":15.15503403,"ECCENTRICITY":0.00016675,"INCLINATION":53.0914,"RA_OF_ASC_NODE":240.2006,"ARG_OF_PERICENTER":79.2002,"MEAN_ANOMALY":45.1048,"EPHEMERIS_TYPE":0,"CLASSIFICATION_TYPE":"U","NORAD_CAT_ID":48000,"ELEMENT_SET_NO":999,"REV_AT_EPOCH":568,"BSTAR":0.0047847248,"MEAN_MOTION_DOT":0.00092576,"MEAN_MOTION_DDOT":0},{"OBJECT_NAME":"WISDOM A","OBJECT_ID":"2025-276Y","EPOCH":"2026-03-09T17:03:25.278336","MEAN_MOTION":15.18235273,"ECCENTRICITY":0.00046161,"INCLINATION":97.4292,"RA_OF_ASC_NODE":143.9314,"ARG_OF_PERICENTER":4.7568,"MEAN_ANOMALY":355.3709,"EPHEMERIS_TYPE":0,"CLASSIFICATION_TYPE":"U","NORAD_CAT_ID":66688,"ELEMENT_SET_NO":999,"REV_AT_EPOCH":1531,"BSTAR":0.0003214307,"MEAN_MOTION_DOT":6.515e-5,"MEAN_MOTION_DDOT":0}]
